{
  "type": "FeatureCollection",
  "features": [
    {
      "type": "Feature",
      "properties": {
        "norad_id": 30701,
        "name": "FENGYUN 1C DEB",
        "group": "fengyun-1c-debris",
        "lat": 61.067438724717555,
        "lon": 11.355958008215271,
        "alt_km": 820.7330009910356,
        "timestamp": "2025-12-12T03:50:52.695319+00:00",
        "meta_object_name": "FENGYUN 1C DEB",
        "meta_object_id": "1999-025ARK",
        "meta_epoch": "2025-12-11T08:55:31.677888",
        "meta_mean_motion": 14.1393439,
        "meta_eccentricity": 0.00357095,
        "meta_inclination": 98.7186,
        "meta_ra_of_asc_node": 26.7042,
        "meta_arg_of_pericenter": 106.5406,
        "meta_mean_anomaly": 265.0578,
        "meta_ephemeris_type": 0,
        "meta_classification_type": "U",
        "meta_norad_cat_id": 30701,
        "meta_element_set_no": 999,
        "meta_rev_at_epoch": 97100,
        "meta_bstar": 2.1834503e-05,
        "meta_mean_motion_dot": -1e-08,
        "meta_mean_motion_ddot": 0,
        "tle_line1": "1 30701U 99025ARK 25345.37189442 -.00000001  00000+0  21835-4 0  9997",
        "tle_line2": "2 30701  98.7186  26.7042 0035709 106.5406 265.0578 14.13934390971006"
      },
      "geometry": {
        "type": "Point",
        "coordinates": [
          11.355958008215271,
          61.067438724717555
        ]
      }
    },
    {
      "type": "Feature",
      "properties": {
        "norad_id": 30702,
        "name": "FENGYUN 1C DEB",
        "group": "fengyun-1c-debris",
        "lat": 27.93611788140805,
        "lon": 1.3257020814646245,
        "alt_km": 875.3274767537005,
        "timestamp": "2025-12-12T03:50:52.695329+00:00",
        "meta_object_name": "FENGYUN 1C DEB",
        "meta_object_id": "1999-025ARL",
        "meta_epoch": "2025-12-11T00:28:46.199424",
        "meta_mean_motion": 14.03585456,
        "meta_eccentricity": 0.00685034,
        "meta_inclination": 98.7696,
        "meta_ra_of_asc_node": 4.9212,
        "meta_arg_of_pericenter": 306.716,
        "meta_mean_anomaly": 81.9829,
        "meta_ephemeris_type": 0,
        "meta_classification_type": "U",
        "meta_norad_cat_id": 30702,
        "meta_element_set_no": 999,
        "meta_rev_at_epoch": 96138,
        "meta_bstar": 0.00098892536,
        "meta_mean_motion_dot": 1.541e-05,
        "meta_mean_motion_ddot": 0,
        "tle_line1": "1 30702U 99025ARL 25345.01997916  .00001541  00000+0  98893-3 0  9998",
        "tle_line2": "2 30702  98.7696   4.9212 0068503 306.7160  81.9829 14.03585456961387"
      },
      "geometry": {
        "type": "Point",
        "coordinates": [
          1.3257020814646245,
          27.93611788140805
        ]
      }
    },
    {
      "type": "Feature",
      "properties": {
        "norad_id": 30703,
        "name": "FENGYUN 1C DEB",
        "group": "fengyun-1c-debris",
        "lat": 78.59782103002397,
        "lon": -155.84493126918267,
        "alt_km": 901.3900494838063,
        "timestamp": "2025-12-12T03:50:52.695339+00:00",
        "meta_object_name": "FENGYUN 1C DEB",
        "meta_object_id": "1999-025ARM",
        "meta_epoch": "2025-12-11T11:11:34.368000",
        "meta_mean_motion": 14.19316431,
        "meta_eccentricity": 0.01177611,
        "meta_inclination": 99.1422,
        "meta_ra_of_asc_node": 330.4546,
        "meta_arg_of_pericenter": 295.7001,
        "meta_mean_anomaly": 216.8635,
        "meta_ephemeris_type": 0,
        "meta_classification_type": "U",
        "meta_norad_cat_id": 30703,
        "meta_element_set_no": 999,
        "meta_rev_at_epoch": 96522,
        "meta_bstar": 0.002108334,
        "meta_mean_motion_dot": 4.698e-05,
        "meta_mean_motion_ddot": 0,
        "tle_line1": "1 30703U 99025ARM 25345.46637000  .00004698  00000+0  21083-2 0  9995",
        "tle_line2": "2 30703  99.1422 330.4546 0117761 295.7001 216.8635 14.19316431965222"
      },
      "geometry": {
        "type": "Point",
        "coordinates": [
          -155.84493126918267,
          78.59782103002397
        ]
      }
    },
    {
      "type": "Feature",
      "properties": {
        "norad_id": 30704,
        "name": "FENGYUN 1C DEB",
        "group": "fengyun-1c-debris",
        "lat": 72.34111168494884,
        "lon": -44.46627540770035,
        "alt_km": 826.6035601361646,
        "timestamp": "2025-12-12T03:50:52.695349+00:00",
        "meta_object_name": "FENGYUN 1C DEB",
        "meta_object_id": "1999-025ARN",
        "meta_epoch": "2025-12-11T11:05:50.386272",
        "meta_mean_motion": 14.02045417,
        "meta_eccentricity": 0.00817088,
        "meta_inclination": 98.8721,
        "meta_ra_of_asc_node": 344.2371,
        "meta_arg_of_pericenter": 103.3792,
        "meta_mean_anomaly": 50.9074,
        "meta_ephemeris_type": 0,
        "meta_classification_type": "U",
        "meta_norad_cat_id": 30704,
        "meta_element_set_no": 999,
        "meta_rev_at_epoch": 96093,
        "meta_bstar": 0.00061421421,
        "meta_mean_motion_dot": 9.23e-06,
        "meta_mean_motion_ddot": 0,
        "tle_line1": "1 30704U 99025ARN 25345.46238873  .00000923  00000+0  61421-3 0  9999",
        "tle_line2": "2 30704  98.8721 344.2371 0081708 103.3792  50.9074 14.02045417960934"
      },
      "geometry": {
        "type": "Point",
        "coordinates": [
          -44.46627540770035,
          72.34111168494884
        ]
      }
    },
    {
      "type": "Feature",
      "properties": {
        "norad_id": 30705,
        "name": "FENGYUN 1C DEB",
        "group": "fengyun-1c-debris",
        "lat": 8.323607609005032,
        "lon": -88.02092426156189,
        "alt_km": 1013.5345461537063,
        "timestamp": "2025-12-12T03:50:52.695359+00:00",
        "meta_object_name": "FENGYUN 1C DEB",
        "meta_object_id": "1999-025ARP",
        "meta_epoch": "2025-12-11T13:12:25.417152",
        "meta_mean_motion": 13.81310468,
        "meta_eccentricity": 0.01997345,
        "meta_inclination": 102.18,
        "meta_ra_of_asc_node": 89.3834,
        "meta_arg_of_pericenter": 284.9663,
        "meta_mean_anomaly": 96.4341,
        "meta_ephemeris_type": 0,
        "meta_classification_type": "U",
        "meta_norad_cat_id": 30705,
        "meta_element_set_no": 999,
        "meta_rev_at_epoch": 93993,
        "meta_bstar": 0.0033165869,
        "meta_mean_motion_dot": 4.031e-05,
        "meta_mean_motion_ddot": 0,
        "tle_line1": "1 30705U 99025ARP 25345.55029418  .00004031  00000+0  33166-2 0  9991",
        "tle_line2": "2 30705 102.1800  89.3834 0199734 284.9663  96.4341 13.81310468939930"
      },
      "geometry": {
        "type": "Point",
        "coordinates": [
          -88.02092426156189,
          8.323607609005032
        ]
      }
    },
    {
      "type": "Feature",
      "properties": {
        "norad_id": 30706,
        "name": "FENGYUN 1C DEB",
        "group": "fengyun-1c-debris",
        "lat": 17.35983915099576,
        "lon": -122.11330963626202,
        "alt_km": 811.308704521809,
        "timestamp": "2025-12-12T03:50:52.695369+00:00",
        "meta_object_name": "FENGYUN 1C DEB",
        "meta_object_id": "1999-025ARQ",
        "meta_epoch": "2025-12-11T15:58:52.235904",
        "meta_mean_motion": 14.26418276,
        "meta_eccentricity": 0.0026472,
        "meta_inclination": 99.0642,
        "meta_ra_of_asc_node": 240.2356,
        "meta_arg_of_pericenter": 131.4559,
        "meta_mean_anomaly": 228.8899,
        "meta_ephemeris_type": 0,
        "meta_classification_type": "U",
        "meta_norad_cat_id": 30706,
        "meta_element_set_no": 999,
        "meta_rev_at_epoch": 97612,
        "meta_bstar": 0.0013038658,
        "meta_mean_motion_dot": 3.102e-05,
        "meta_mean_motion_ddot": 0,
        "tle_line1": "1 30706U 99025ARQ 25345.66588236  .00003102  00000+0  13039-2 0  9997",
        "tle_line2": "2 30706  99.0642 240.2356 0026472 131.4559 228.8899 14.26418276976121"
      },
      "geometry": {
        "type": "Point",
        "coordinates": [
          -122.11330963626202,
          17.35983915099576
        ]
      }
    },
    {
      "type": "Feature",
      "properties": {
        "norad_id": 30707,
        "name": "FENGYUN 1C DEB",
        "group": "fengyun-1c-debris",
        "lat": -66.68872427344611,
        "lon": -162.1500387070284,
        "alt_km": 830.022141850206,
        "timestamp": "2025-12-12T03:50:52.695379+00:00",
        "meta_object_name": "FENGYUN 1C DEB",
        "meta_object_id": "1999-025ARR",
        "meta_epoch": "2025-12-11T15:37:09.956352",
        "meta_mean_motion": 14.2667346,
        "meta_eccentricity": 0.00278569,
        "meta_inclination": 99.4129,
        "meta_ra_of_asc_node": 39.9447,
        "meta_arg_of_pericenter": 73.1128,
        "meta_mean_anomaly": 79.9284,
        "meta_ephemeris_type": 0,
        "meta_classification_type": "U",
        "meta_norad_cat_id": 30707,
        "meta_element_set_no": 999,
        "meta_rev_at_epoch": 96787,
        "meta_bstar": 0.0022009355,
        "meta_mean_motion_dot": 5.297e-05,
        "meta_mean_motion_ddot": 0,
        "tle_line1": "1 30707U 99025ARR 25345.65080968  .00005297  00000+0  22009-2 0  9990",
        "tle_line2": "2 30707  99.4129  39.9447 0027856  73.1128  79.9284 14.26673460967874"
      },
      "geometry": {
        "type": "Point",
        "coordinates": [
          -162.1500387070284,
          -66.68872427344611
        ]
      }
    }
  ]
}